0 DELTA 1 DEB
1 03974U 68069E   13281.17783120 -.00000008  00000-0  24615-3 0  9064
2 03974 102.0997 249.4639 0035649 013.5063 114.8398 12.53176721 67018
0 DELTA 1 DEB
1 03974U 68069E   13286.83315396 -.00000048  00000-0 -45135-5 0  9087
2 03974 102.1003 255.2233 0035606 002.8636 068.3840 12.53177317 67727
0 DELTA 1 DEB
1 03974U 68069E   13291.14244453 -.00000037  00000-0  61237-4 0  9090
2 03974 102.1016 259.6112 0035557 354.7334 069.4380 12.53177230 68269
0 DELTA 1 DEB
1 03974U 68069E   13294.50940661 -.00000014  00000-0  21036-3 0  9106
2 03974 102.1023 263.0402 0035525 348.3016 139.3263 12.53177308 68688
